[{"OBJECT_NAME":"NUSANTARA LIMA (NUSANTARA 5)","OBJECT_ID":"2025-205A","EPOCH":"2026-04-26T22:25:36.499008","MEAN_MOTION":1.00272864,"ECCENTRICITY":9.67e-5,"INCLINATION":0.0528,"RA_OF_ASC_NODE":74.3714,"ARG_OF_PERICENTER":323.9004,"MEAN_ANOMALY":265.9081,"EPHEMERIS_TYPE":0,"CLASSIFICATION_TYPE":"U","NORAD_CAT_ID":65588,"ELEMENT_SET_NO":999,"REV_AT_EPOCH":220,"BSTAR":0,"MEAN_MOTION_DOT":-3.69e-6,"MEAN_MOTION_DDOT":0},{"OBJECT_NAME":"TJS-20","OBJECT_ID":"2025-238A","EPOCH":"2026-04-27T01:59:21.598368","MEAN_MOTION":1.00268565,"ECCENTRICITY":0.000387,"INCLINATION":5.583,"RA_OF_ASC_NODE":299.7599,"ARG_OF_PERICENTER":122.7182,"MEAN_ANOMALY":244.8751,"EPHEMERIS_TYPE":0,"CLASSIFICATION_TYPE":"U","NORAD_CAT_ID":66142,"ELEMENT_SET_NO":999,"REV_AT_EPOCH":182,"BSTAR":0,"MEAN_MOTION_DOT":4.0e-8,"MEAN_MOTION_DDOT":0},{"OBJECT_NAME":"SPAINSAT NG II","OBJECT_ID":"2025-239A","EPOCH":"2026-04-27T03:01:37.022016","MEAN_MOTION":0.96629131,"ECCENTRICITY":0.76296663,"INCLINATION":14.1921,"RA_OF_ASC_NODE":228.7431,"ARG_OF_PERICENTER":208.2754,"MEAN_ANOMALY":70.7885,"EPHEMERIS_TYPE":0,"CLASSIFICATION_TYPE":"U","NORAD_CAT_ID":66144,"ELEMENT_SET_NO":999,"REV_AT_EPOCH":185,"BSTAR":0,"MEAN_MOTION_DOT":-2.51e-6,"MEAN_MOTION_DDOT":0},{"OBJECT_NAME":"CMS-03 (GSAT-7R)","OBJECT_ID":"2025-249B","EPOCH":"2026-04-27T02:50:38.609088","MEAN_MOTION":1.00272424,"ECCENTRICITY":0.0003681,"INCLINATION":0.0058,"RA_OF_ASC_NODE":169.2864,"ARG_OF_PERICENTER":208.0877,"MEAN_ANOMALY":314.421,"EPHEMERIS_TYPE":0,"CLASSIFICATION_TYPE":"U","NORAD_CAT_ID":66311,"ELEMENT_SET_NO":999,"REV_AT_EPOCH":183,"BSTAR":0,"MEAN_MOTION_DOT":-8.8e-7,"MEAN_MOTION_DDOT":0},{"OBJECT_NAME":"VIASAT-3 F2","OBJECT_ID":"2025-261A","EPOCH":"2026-04-27T11:30:07.168032","MEAN_MOTION":1.00273001,"ECCENTRICITY":0.0001287,"INCLINATION":0.022,"RA_OF_ASC_NODE":105.786,"ARG_OF_PERICENTER":25.1269,"MEAN_ANOMALY":178.118,"EPHEMERIS_TYPE":0,"CLASSIFICATION_TYPE":"U","NORAD_CAT_ID":66454,"ELEMENT_SET_NO":999,"REV_AT_EPOCH":227,"BSTAR":0,"MEAN_MOTION_DOT":-2.43e-6,"MEAN_MOTION_DDOT":0},{"OBJECT_NAME":"SHIJIAN-28 (SJ-28)","OBJECT_ID":"2025-277A","EPOCH":"2026-04-27T02:08:38.539680","MEAN_MOTION":1.00270727,"ECCENTRICITY":2.974e-5,"INCLINATION":4.6691,"RA_OF_ASC_NODE":272.9311,"ARG_OF_PERICENTER":358.1666,"MEAN_ANOMALY":93.0107,"EPHEMERIS_TYPE":0,"CLASSIFICATION_TYPE":"U","NORAD_CAT_ID":66549,"ELEMENT_SET_NO":999,"REV_AT_EPOCH":164,"BSTAR":0,"MEAN_MOTION_DOT":-3.79e-6,"MEAN_MOTION_DDOT":0},{"OBJECT_NAME":"TJS-22","OBJECT_ID":"2025-290A","EPOCH":"2026-04-27T00:15:30.297312","MEAN_MOTION":1.00273025,"ECCENTRICITY":0.0002142,"INCLINATION":1.6545,"RA_OF_ASC_NODE":285.9588,"ARG_OF_PERICENTER":0.6218,"MEAN_ANOMALY":358.7713,"EPHEMERIS_TYPE":0,"CLASSIFICATION_TYPE":"U","NORAD_CAT_ID":66990,"ELEMENT_SET_NO":999,"REV_AT_EPOCH":151,"BSTAR":0,"MEAN_MOTION_DOT":-2.1e-7,"MEAN_MOTION_DDOT":0},{"OBJECT_NAME":"TJS-23","OBJECT_ID":"2025-306A","EPOCH":"2026-04-26T17:49:33.504096","MEAN_MOTION":1.00271854,"ECCENTRICITY":0.0004469,"INCLINATION":5.7056,"RA_OF_ASC_NODE":297.7498,"ARG_OF_PERICENTER":134.9158,"MEAN_ANOMALY":224.9104,"EPHEMERIS_TYPE":0,"CLASSIFICATION_TYPE":"U","NORAD_CAT_ID":67226,"ELEMENT_SET_NO":999,"REV_AT_EPOCH":137,"BSTAR":0,"MEAN_MOTION_DOT":-6.0e-8,"MEAN_MOTION_DDOT":0},{"OBJECT_NAME":"CZ-5 R/B","OBJECT_ID":"2025-306B","EPOCH":"2026-04-27T11:14:35.046816","MEAN_MOTION":1.93665586,"ECCENTRICITY":0.7549352,"INCLINATION":15.8031,"RA_OF_ASC_NODE":255.5956,"ARG_OF_PERICENTER":259.3574,"MEAN_ANOMALY":16.2209,"EPHEMERIS_TYPE":0,"CLASSIFICATION_TYPE":"U","NORAD_CAT_ID":67227,"ELEMENT_SET_NO":999,"REV_AT_EPOCH":249,"BSTAR":0.00064739,"MEAN_MOTION_DOT":1.185e-5,"MEAN_MOTION_DDOT":0},{"OBJECT_NAME":"FENGYUN 4C","OBJECT_ID":"2025-312A","EPOCH":"2026-04-27T11:22:28.151616","MEAN_MOTION":1.00273234,"ECCENTRICITY":6.19e-5,"INCLINATION":0.034,"RA_OF_ASC_NODE":75.5592,"ARG_OF_PERICENTER":53.3765,"MEAN_ANOMALY":30.1409,"EPHEMERIS_TYPE":0,"CLASSIFICATION_TYPE":"U","NORAD_CAT_ID":67246,"ELEMENT_SET_NO":999,"REV_AT_EPOCH":127,"BSTAR":0,"MEAN_MOTION_DOT":-3.32e-6,"MEAN_MOTION_DDOT":0},{"OBJECT_NAME":"SHIJIAN-29A (SJ-29A)","OBJECT_ID":"2025-315A","EPOCH":"2026-04-27T01:48:57.830112","MEAN_MOTION":1.00274841,"ECCENTRICITY":0.00027814,"INCLINATION":3.2693,"RA_OF_ASC_NODE":96.3555,"ARG_OF_PERICENTER":322.8697,"MEAN_ANOMALY":256.5675,"EPHEMERIS_TYPE":0,"CLASSIFICATION_TYPE":"U","NORAD_CAT_ID":67302,"ELEMENT_SET_NO":999,"REV_AT_EPOCH":110,"BSTAR":0,"MEAN_MOTION_DOT":-7.8e-7,"MEAN_MOTION_DDOT":0},{"OBJECT_NAME":"SHIJIAN-29B (SJ-29B)","OBJECT_ID":"2025-315C","EPOCH":"2026-04-27T04:29:51.662400","MEAN_MOTION":1.00274882,"ECCENTRICITY":0.0006535,"INCLINATION":3.2688,"RA_OF_ASC_NODE":96.3483,"ARG_OF_PERICENTER":339.0151,"MEAN_ANOMALY":280.8505,"EPHEMERIS_TYPE":0,"CLASSIFICATION_TYPE":"U","NORAD_CAT_ID":67403,"ELEMENT_SET_NO":999,"REV_AT_EPOCH":117,"BSTAR":0,"MEAN_MOTION_DOT":-7.9e-7,"MEAN_MOTION_DDOT":0},{"OBJECT_NAME":"LUCH (OLYMP-K 1) DEB","OBJECT_ID":"2014-058D","EPOCH":"2026-04-26T15:00:41.249088","MEAN_MOTION":0.98024314,"ECCENTRICITY":0.1365252,"INCLINATION":1.8023,"RA_OF_ASC_NODE":84.3904,"ARG_OF_PERICENTER":358.5046,"MEAN_ANOMALY":1.2551,"EPHEMERIS_TYPE":0,"CLASSIFICATION_TYPE":"U","NORAD_CAT_ID":67745,"ELEMENT_SET_NO":999,"REV_AT_EPOCH":84,"BSTAR":0,"MEAN_MOTION_DOT":-2.27e-6,"MEAN_MOTION_DDOT":0},{"OBJECT_NAME":"ELEKTRO-L 5","OBJECT_ID":"2026-028A","EPOCH":"2026-04-26T04:38:52.799424","MEAN_MOTION":1.00271675,"ECCENTRICITY":9.932e-5,"INCLINATION":0.3603,"RA_OF_ASC_NODE":297.1584,"ARG_OF_PERICENTER":184.7777,"MEAN_ANOMALY":238.0649,"EPHEMERIS_TYPE":0,"CLASSIFICATION_TYPE":"U","NORAD_CAT_ID":67756,"ELEMENT_SET_NO":999,"REV_AT_EPOCH":73,"BSTAR":0,"MEAN_MOTION_DOT":-1.11e-6,"MEAN_MOTION_DDOT":0},{"OBJECT_NAME":"JAM-E JAM 1","OBJECT_ID":"2026-028B","EPOCH":"2026-04-27T04:56:38.684256","MEAN_MOTION":1.00266157,"ECCENTRICITY":5.048e-5,"INCLINATION":0.3745,"RA_OF_ASC_NODE":291.4196,"ARG_OF_PERICENTER":293.3424,"MEAN_ANOMALY":98.537,"EPHEMERIS_TYPE":0,"CLASSIFICATION_TYPE":"U","NORAD_CAT_ID":67757,"ELEMENT_SET_NO":999,"REV_AT_EPOCH":61,"BSTAR":0,"MEAN_MOTION_DOT":1.45e-6,"MEAN_MOTION_DDOT":0},{"OBJECT_NAME":"ECHOSTAR 25","OBJECT_ID":"2026-045A","EPOCH":"2026-04-24T19:24:15.391008","MEAN_MOTION":1.00269397,"ECCENTRICITY":0.00029238,"INCLINATION":0.0161,"RA_OF_ASC_NODE":49.1041,"ARG_OF_PERICENTER":45.4072,"MEAN_ANOMALY":280.5526,"EPHEMERIS_TYPE":0,"CLASSIFICATION_TYPE":"U","NORAD_CAT_ID":68126,"ELEMENT_SET_NO":999,"REV_AT_EPOCH":45,"BSTAR":0,"MEAN_MOTION_DOT":0,"MEAN_MOTION_DDOT":0},{"OBJECT_NAME":"SWC-1","OBJECT_ID":"2026-069C","EPOCH":"2026-04-17T12:14:33.921312","MEAN_MOTION":1.01840683,"ECCENTRICITY":0.8357664,"INCLINATION":28.3533,"RA_OF_ASC_NODE":357.7706,"ARG_OF_PERICENTER":80.9928,"MEAN_ANOMALY":279.0715,"EPHEMERIS_TYPE":0,"CLASSIFICATION_TYPE":"U","NORAD_CAT_ID":68540,"ELEMENT_SET_NO":999,"REV_AT_EPOCH":16,"BSTAR":0,"MEAN_MOTION_DOT":-3.51e-6,"MEAN_MOTION_DDOT":0},{"OBJECT_NAME":"MERIDIAN-M 21L","OBJECT_ID":"2026-071A","EPOCH":"2026-04-25T09:02:13.467264","MEAN_MOTION":2.00619164,"ECCENTRICITY":0.72090108,"INCLINATION":62.787,"RA_OF_ASC_NODE":235.8371,"ARG_OF_PERICENTER":285.0296,"MEAN_ANOMALY":11.0051,"EPHEMERIS_TYPE":0,"CLASSIFICATION_TYPE":"U","NORAD_CAT_ID":68571,"ELEMENT_SET_NO":999,"REV_AT_EPOCH":45,"BSTAR":0,"MEAN_MOTION_DOT":-6.7e-7,"MEAN_MOTION_DDOT":0},{"OBJECT_NAME":"FREGAT R/B","OBJECT_ID":"2026-071B","EPOCH":"2026-04-03T07:42:42.175872","MEAN_MOTION":2.01041412,"ECCENTRICITY":0.73138199,"INCLINATION":63.0589,"RA_OF_ASC_NODE":237.9448,"ARG_OF_PERICENTER":284.9724,"MEAN_ANOMALY":10.3188,"EPHEMERIS_TYPE":0,"CLASSIFICATION_TYPE":"U","NORAD_CAT_ID":68572,"ELEMENT_SET_NO":999,"REV_AT_EPOCH":1,"BSTAR":0.00035051942,"MEAN_MOTION_DOT":-1.541e-5,"MEAN_MOTION_DDOT":0},{"OBJECT_NAME":"UNKNOWN","OBJECT_ID":"","EPOCH":"2026-04-27T11:40:09.782112","MEAN_MOTION":0.99111944,"ECCENTRICITY":0.0122101,"INCLINATION":5.851,"RA_OF_ASC_NODE":289.4695,"ARG_OF_PERICENTER":254.8942,"MEAN_ANOMALY":103.3721,"EPHEMERIS_TYPE":0,"CLASSIFICATION_TYPE":"U","NORAD_CAT_ID":83903,"ELEMENT_SET_NO":999,"REV_AT_EPOCH":4500,"BSTAR":0,"MEAN_MOTION_DOT":-9.1e-7,"MEAN_MOTION_DDOT":0},{"OBJECT_NAME":"UNKNOWN","OBJECT_ID":"","EPOCH":"2026-04-27T08:05:38.563296","MEAN_MOTION":1.02661656,"ECCENTRICITY":0.0222634,"INCLINATION":5.4795,"RA_OF_ASC_NODE":296.6746,"ARG_OF_PERICENTER":275.7899,"MEAN_ANOMALY":262.6456,"EPHEMERIS_TYPE":0,"CLASSIFICATION_TYPE":"U","NORAD_CAT_ID":83934,"ELEMENT_SET_NO":999,"REV_AT_EPOCH":4667,"BSTAR":0,"MEAN_MOTION_DOT":-1.29e-6,"MEAN_MOTION_DDOT":0},{"OBJECT_NAME":"UNKNOWN","OBJECT_ID":"","EPOCH":"2026-04-25T00:52:06.874752","MEAN_MOTION":2.05819232,"ECCENTRICITY":0.722611,"INCLINATION":19.3934,"RA_OF_ASC_NODE":283.2287,"ARG_OF_PERICENTER":133.7057,"MEAN_ANOMALY":314.8777,"EPHEMERIS_TYPE":0,"CLASSIFICATION_TYPE":"U","NORAD_CAT_ID":84407,"ELEMENT_SET_NO":999,"REV_AT_EPOCH":7861,"BSTAR":0.045676,"MEAN_MOTION_DOT":2.57e-6,"MEAN_MOTION_DDOT":0},{"OBJECT_NAME":"UNKNOWN","OBJECT_ID":"","EPOCH":"2026-04-24T04:11:33.501984","MEAN_MOTION":2.19856562,"ECCENTRICITY":0.7127224,"INCLINATION":18.0641,"RA_OF_ASC_NODE":113.6489,"ARG_OF_PERICENTER":104.1646,"MEAN_ANOMALY":338.3019,"EPHEMERIS_TYPE":0,"CLASSIFICATION_TYPE":"U","NORAD_CAT_ID":84575,"ELEMENT_SET_NO":999,"REV_AT_EPOCH":6837,"BSTAR":0.00041711,"MEAN_MOTION_DOT":-1.5e-6,"MEAN_MOTION_DDOT":0},{"OBJECT_NAME":"UNKNOWN","OBJECT_ID":"","EPOCH":"2026-04-26T11:22:39.599616","MEAN_MOTION":2.08222904,"ECCENTRICITY":0.73589529,"INCLINATION":59.9957,"RA_OF_ASC_NODE":191.8549,"ARG_OF_PERICENTER":79.5416,"MEAN_ANOMALY":348.812,"EPHEMERIS_TYPE":0,"CLASSIFICATION_TYPE":"U","NORAD_CAT_ID":270298,"ELEMENT_SET_NO":999,"REV_AT_EPOCH":1446,"BSTAR":0.0032003112,"MEAN_MOTION_DOT":1.39e-5,"MEAN_MOTION_DDOT":0}]
